{
  "type": "FeatureCollection",
  "features": [
    {
      "type": "Feature",
      "properties": {
        "norad_id": 67053,
        "name": "STARLINK-35739",
        "group": "last-30-days",
        "lat": -28.522583581344467,
        "lon": 81.06732340955952,
        "alt_km": 335.6779236233824,
        "timestamp": "2025-12-23T09:49:05.800358+00:00",
        "meta_object_name": "STARLINK-35739",
        "meta_object_id": "2025-294Z",
        "meta_epoch": "2025-12-22T22:00:03.000096",
        "meta_mean_motion": 15.8073105,
        "meta_eccentricity": 0.00017114,
        "meta_inclination": 43.0005,
        "meta_ra_of_asc_node": 119.7526,
        "meta_arg_of_pericenter": 283.1961,
        "meta_mean_anomaly": 108.7974,
        "meta_ephemeris_type": 0,
        "meta_classification_type": "U",
        "meta_norad_cat_id": 67053,
        "meta_element_set_no": 999,
        "meta_rev_at_epoch": 159,
        "meta_bstar": -0.011176406,
        "meta_mean_motion_dot": -0.0193003,
        "meta_mean_motion_ddot": 0,
        "tle_line1": "1 67053U 25294Z   25356.91670139 -.01930030  00000+0 -11176-1 0  9994",
        "tle_line2": "2 67053  43.0005 119.7526 0001711 283.1961 108.7974 15.80731050  1597"
      },
      "geometry": {
        "type": "Point",
        "coordinates": [
          81.06732340955952,
          -28.522583581344467
        ]
      }
    },
    {
      "type": "Feature",
      "properties": {
        "norad_id": 67054,
        "name": "STARLINK-35754",
        "group": "last-30-days",
        "lat": -27.17988734575804,
        "lon": 83.29964270835873,
        "alt_km": 335.73019973300507,
        "timestamp": "2025-12-23T09:49:05.800368+00:00",
        "meta_object_name": "STARLINK-35754",
        "meta_object_id": "2025-294AA",
        "meta_epoch": "2025-12-22T22:00:03.000096",
        "meta_mean_motion": 15.80708871,
        "meta_eccentricity": 0.0001601,
        "meta_inclination": 43.0003,
        "meta_ra_of_asc_node": 119.7467,
        "meta_arg_of_pericenter": 283.6646,
        "meta_mean_anomaly": 110.759,
        "meta_ephemeris_type": 0,
        "meta_classification_type": "U",
        "meta_norad_cat_id": 67054,
        "meta_element_set_no": 999,
        "meta_rev_at_epoch": 175,
        "meta_bstar": -0.011169024,
        "meta_mean_motion_dot": -0.01927079,
        "meta_mean_motion_ddot": 0,
        "tle_line1": "1 67054U 25294AA  25356.91670139 -.01927079  00000+0 -11169-1 0  9996",
        "tle_line2": "2 67054  43.0003 119.7467 0001601 283.6646 110.7590 15.80708871  1753"
      },
      "geometry": {
        "type": "Point",
        "coordinates": [
          83.29964270835873,
          -27.17988734575804
        ]
      }
    },
    {
      "type": "Feature",
      "properties": {
        "norad_id": 67055,
        "name": "STARLINK-35790",
        "group": "last-30-days",
        "lat": -25.847997327212248,
        "lon": 85.40687239184723,
        "alt_km": 335.78422948126627,
        "timestamp": "2025-12-23T09:49:05.800380+00:00",
        "meta_object_name": "STARLINK-35790",
        "meta_object_id": "2025-294AB",
        "meta_epoch": "2025-12-22T22:00:03.000096",
        "meta_mean_motion": 15.80695662,
        "meta_eccentricity": 0.00015717,
        "meta_inclination": 43.0001,
        "meta_ra_of_asc_node": 119.7401,
        "meta_arg_of_pericenter": 280.2515,
        "meta_mean_anomaly": 116.5113,
        "meta_ephemeris_type": 0,
        "meta_classification_type": "U",
        "meta_norad_cat_id": 67055,
        "meta_element_set_no": 999,
        "meta_rev_at_epoch": 194,
        "meta_bstar": -0.011189546,
        "meta_mean_motion_dot": -0.01929084,
        "meta_mean_motion_ddot": 0,
        "tle_line1": "1 67055U 25294AB  25356.91670139 -.01929084  00000+0 -11190-1 0  9999",
        "tle_line2": "2 67055  43.0001 119.7401 0001571 280.2515 116.5113 15.80695662  1943"
      },
      "geometry": {
        "type": "Point",
        "coordinates": [
          85.40687239184723,
          -25.847997327212248
        ]
      }
    },
    {
      "type": "Feature",
      "properties": {
        "norad_id": 67056,
        "name": "STARLINK-36143",
        "group": "last-30-days",
        "lat": -22.1681958432522,
        "lon": 90.78753575332803,
        "alt_km": 335.55485338204653,
        "timestamp": "2025-12-23T09:49:05.800391+00:00",
        "meta_object_name": "STARLINK-36143",
        "meta_object_id": "2025-294AC",
        "meta_epoch": "2025-12-22T22:00:03.000096",
        "meta_mean_motion": 15.80673322,
        "meta_eccentricity": 0.00015864,
        "meta_inclination": 43.0002,
        "meta_ra_of_asc_node": 119.7242,
        "meta_arg_of_pericenter": 284.1035,
        "meta_mean_anomaly": 118.8462,
        "meta_ephemeris_type": 0,
        "meta_classification_type": "U",
        "meta_norad_cat_id": 67056,
        "meta_element_set_no": 999,
        "meta_rev_at_epoch": 194,
        "meta_bstar": -0.011153027,
        "meta_mean_motion_dot": -0.019219,
        "meta_mean_motion_ddot": 0,
        "tle_line1": "1 67056U 25294AC  25356.91670139 -.01921900  00000+0 -11153-1 0  9998",
        "tle_line2": "2 67056  43.0002 119.7242 0001586 284.1035 118.8462 15.80673322  1945"
      },
      "geometry": {
        "type": "Point",
        "coordinates": [
          90.78753575332803,
          -22.1681958432522
        ]
      }
    },
    {
      "type": "Feature",
      "properties": {
        "norad_id": 67057,
        "name": "STARLINK-36141",
        "group": "last-30-days",
        "lat": -23.458845087923923,
        "lon": 88.96600806403012,
        "alt_km": 335.4831093354651,
        "timestamp": "2025-12-23T09:49:05.800403+00:00",
        "meta_object_name": "STARLINK-36141",
        "meta_object_id": "2025-294AD",
        "meta_epoch": "2025-12-22T22:00:03.000096",
        "meta_mean_motion": 15.80687346,
        "meta_eccentricity": 0.00018037,
        "meta_inclination": 43,
        "meta_ra_of_asc_node": 119.7301,
        "meta_arg_of_pericenter": 284.4217,
        "meta_mean_anomaly": 116.3873,
        "meta_ephemeris_type": 0,
        "meta_classification_type": "U",
        "meta_norad_cat_id": 67057,
        "meta_element_set_no": 999,
        "meta_rev_at_epoch": 186,
        "meta_bstar": -0.011199278,
        "meta_mean_motion_dot": -0.01930126,
        "meta_mean_motion_ddot": 0,
        "tle_line1": "1 67057U 25294AD  25356.91670139 -.01930126  00000+0 -11199-1 0  9999",
        "tle_line2": "2 67057  43.0000 119.7301 0001803 284.4217 116.3873 15.80687346  1868"
      },
      "geometry": {
        "type": "Point",
        "coordinates": [
          88.96600806403012,
          -23.458845087923923
        ]
      }
    },
    {
      "type": "Feature",
      "properties": {
        "norad_id": 67058,
        "name": "STARLINK-35767",
        "group": "last-30-days",
        "lat": -24.64040875588745,
        "lon": 87.23878963406612,
        "alt_km": 335.5723312172822,
        "timestamp": "2025-12-23T09:49:05.800415+00:00",
        "meta_object_name": "STARLINK-35767",
        "meta_object_id": "2025-294AE",
        "meta_epoch": "2025-12-22T22:00:03.000096",
        "meta_mean_motion": 15.8068375,
        "meta_eccentricity": 0.00017595,
        "meta_inclination": 43.0003,
        "meta_ra_of_asc_node": 119.7349,
        "meta_arg_of_pericenter": 283.5475,
        "meta_mean_anomaly": 115.2852,
        "meta_ephemeris_type": 0,
        "meta_classification_type": "U",
        "meta_norad_cat_id": 67058,
        "meta_element_set_no": 999,
        "meta_rev_at_epoch": 175,
        "meta_bstar": -0.011155275,
        "meta_mean_motion_dot": -0.01923226,
        "meta_mean_motion_ddot": 0,
        "tle_line1": "1 67058U 25294AE  25356.91670139 -.01923226  00000+0 -11155-1 0  9995",
        "tle_line2": "2 67058  43.0003 119.7349 0001759 283.5475 115.2852 15.80683750  1758"
      },
      "geometry": {
        "type": "Point",
        "coordinates": [
          87.23878963406612,
          -24.64040875588745
        ]
      }
    },
    {
      "type": "Feature",
      "properties": {
        "norad_id": 67059,
        "name": "HULIANWANG DIGUI-119",
        "group": "last-30-days",
        "lat": -44.57922706480551,
        "lon": -156.95536444560986,
        "alt_km": 806.0574123323086,
        "timestamp": "2025-12-23T09:49:05.800427+00:00",
        "meta_object_name": "HULIANWANG DIGUI-119",
        "meta_object_id": "2025-295A",
        "meta_epoch": "2025-12-22T22:33:51.322176",
        "meta_mean_motion": 14.2461564,
        "meta_eccentricity": 0.00140304,
        "meta_inclination": 50.0051,
        "meta_ra_of_asc_node": 329.2051,
        "meta_arg_of_pericenter": 282.2776,
        "meta_mean_anomaly": 77.6566,
        "meta_ephemeris_type": 0,
        "meta_classification_type": "U",
        "meta_norad_cat_id": 67059,
        "meta_element_set_no": 999,
        "meta_rev_at_epoch": 157,
        "meta_bstar": 8.9165059e-05,
        "meta_mean_motion_dot": 4.9e-07,
        "meta_mean_motion_ddot": 0,
        "tle_line1": "1 67059U 25295A   25356.94017734  .00000049  00000+0  89165-4 0  9991",
        "tle_line2": "2 67059  50.0051 329.2051 0014030 282.2776  77.6566 14.24615640  1577"
      },
      "geometry": {
        "type": "Point",
        "coordinates": [
          -156.95536444560986,
          -44.57922706480551
        ]
      }
    }
  ]
}